{
    "launchSite": "Baikonur Cosmodrome",
    "latitude": 45.965,
    "longitude": 63.305,
    "liftoffAt": "2025-02-27T21:24:00Z",
    "eventId": "155e80e8-9937-4211-be73-e2a983342d16",
    "nominals": [
        {
            "idElset": "f6c12ef5-e5c4-41ed-a0a4-b434de51253e",
            "classificationMarking": "U",
            "epoch": "2025-02-27T21:24:00.000000Z",
            "line1": "1 96315U 00000    25058.89166667  .00145842  00000+0  68297-3 0    04",
            "line2": "2 96315  51.6362 128.9920 0008525 227.3395 179.7160 15.82225099    38",
            "createdAt": "2025-02-27T21:28:19.860195Z",
            "source": "IRT",
            "dataMode": "SIMULATED"
        }
    ]
}